MOLNIYA 2-9             
1 07276U 74026A   19137.89997830 -.00000033  00000-0 -10562-2 0  9999
2 07276  63.5261  48.4867 6851764 289.4048  12.1224  2.45096541221773
MOLNIYA 2-10            
1 07376U 74056A   19136.29775835  .00000661  00000-0  00000-0 0  9994
2 07376  63.4634 210.8628 6920723 294.3945  10.5795  2.01198537327671
MOLNIYA 1-S             
1 07392U 74060A   19138.46164620 -.00000266  00000-0  00000+0 0  9993
2 07392   7.7724 298.8031 0007540 171.2995  22.7725  1.00335659108221
MOLNIYA 1-29            
1 07780U 75036A   19137.69783029 -.00000372  00000-0 -42564-4 0  9997
2 07780  62.4331  15.8092 7485216 284.4654   9.5074  2.00622046323043
MOLNIYA 2-14            
1 08195U 75081A   19136.89471523 -.00000144  00000-0  25540-3 0  9992
2 08195  62.6451 340.7792 7456983 289.4603   8.5733  2.02039199320168
MOLNIYA 1-32            
1 08601U 76006A   19136.15644451  .00001074  00000-0  00000-0 0  9996
2 08601  62.2935 111.5021 7291370 274.5479  13.2445  2.00066910 30143
MOLNIYA 2-17            
1 09829U 77010A   19138.03023310  .00002158  00000-0  23475-3 0  9997
2 09829  61.3152 115.3126 7502602 272.3160  12.3495  2.00815888309680
MOLNIYA 1-36            
1 09880U 77021A   19137.90340731  .00000135  00000-0 -34097-3 0  9996
2 09880  61.8309  88.2114 7433189 278.4736  11.2571  2.00369622206858
MOLNIYA 3-7             
1 09941U 77032A   19138.93392359  .00039480 -41491-4  45552-4 0  9990
2 09941  61.4513  83.8575 7513612 277.5974  10.9461  2.05679875308187
MOLNIYA 3-8             
1 10455U 77105A   19138.57522385 -.00000552  00000-0 -65995-2 0  9994
2 10455  62.1196 165.8715 7161475 273.5792  14.4845  2.00448058304487
MOLNIYA 1-40            
1 10925U 78055A   19138.16744679 -.00000452  00000-0  31176-2 0  9990
2 10925  62.4194 196.3346 7068319 277.2328  14.0985  2.00602519300120
MOLNIYA 3-10            
1 11057U 78095A   19138.56670618  .00002167  00000-0  32225-3 0  9997
2 11057  62.5424 114.0823 5977586 289.5312  17.4785  4.08659792337628
MOLNIYA 3-13            
1 11896U 80063A   19138.43306062 -.00000411  00000-0 -38695-3 0  9990
2 11896  62.5746 285.5147 7349703 273.2815  13.1161  2.00628929284555
MOLNIYA 1-49            
1 12156U 81009A   19139.78566835  .00001033  00000-0  19848-2 0  9993
2 12156  62.9432 334.2584 7254077 248.4457  24.4773  2.05690124198383
MOLNIYA 1-52            
1 13012U 81123A   19138.90380006  .00000244  00000-0  00000+0 0  9999
2 13012  64.0187  80.0924 7095562 249.1254  25.9806  2.00854709274063
MOLNIYA 1-53            
1 13070U 82015A   19133.73251341  .00000255  00000-0  11592-3 0  9993
2 13070  62.5067  29.3195 7511540 270.3644  12.7859  2.00691664272576
MOLNIYA 3-20            
1 13875U 83015A   19139.45413856 -.00000739  00000-0 -45913-1 0  9994
2 13875  63.6793 148.2042 6916572 256.8133 339.5693  2.00771556201188
MOLNIYA 1-56            
1 13890U 83019A   19139.12884358  .00000328  00000-0  00000+0 0  9996
2 13890  63.2566 172.8189 6939752 261.2234  19.4199  1.99837592264118
MOLNIYA 1-62            
1 15214U 84089A   19139.25019574  .00001529  00000-0  26424-1 0  9994
2 15214  62.7497 184.9375 7140122 263.8743  18.1139  1.97936452221988
MOLNIYA 1-63            
1 15429U 84124A   19136.48201410  .00000707  00000-0  00000-0 0  9994
2 15429  63.9309 275.3459 6747461 269.1887  17.3645  2.00838384252128
MOLNIYA 3-24            
1 15738U 85040A   19139.12438843  .00000107  00000-0  21117-1 0  9998
2 15738  64.0135 267.2789 6476413 256.0450  52.0504  2.55628404275139
MOLNIYA 3-27            
1 16393U 85117A   19139.25881299  .00000197  00000-0  84441-1 0  9990
2 16393  64.6779 204.4002 6452129 263.0491 227.8230  2.12400682250308
MOLNIYA 1-69            
1 17078U 86089A   19138.73003810 -.00000592  00000-0  10103+0 0  9999
2 17078  64.2995 298.2762 6869540 268.9543 341.5152  2.00712033238249
MOLNIYA 3-31            
1 17328U 87008A   19138.32067602 -.00000223  00000-0  00000+0 0  9999
2 17328  63.8956 245.2783 6750922 264.4883  21.4332  2.00595142233301
MOLNIYA 1-71            
1 18946U 88017A   19139.35814438  .00000371  00000-0  89373-1 0  9993
2 18946  63.6022 248.8707 6884884 264.2555  19.5468  2.00564002228521
MOLNIYA 1-75            
1 19807U 89014A   19139.07819627 -.00000137  00000-0 -23871-2 0  9996
2 19807  64.1836  59.6584 6997060 273.6736  15.7008  2.00567210221518
MOLNIYA 1-80            
1 21118U 91012A   19139.12709285  .00000960  00000-0 -28319-1 0  9993
2 21118  63.7174 102.1603 6815256 288.7859  12.4416  2.05238695207902
MOLNIYA 3-40            
1 21196U 91022A   19139.26084429 -.00000474  00000-0  00000+0 0  9996
2 21196  63.9320  94.6510 6840433 286.1307  13.0184  2.03001856206813
MOLNIYA 1-81            
1 21426U 91043A   19138.99348565  .00000088  00000-0  00000+0 0  9998
2 21426  63.8042 121.1432 6847727 274.7398  16.4659  2.00600485204579
MOLNIYA 3-41            
1 21706U 91065A   19139.44670184 -.00001072  00000-0  50768-1 0  9992
2 21706  64.3365 286.0458 6909307 268.5067  55.5596  2.04359109203942
MOLNIYA 3-42            
1 22178U 92067A   19138.83241510 -.00000162  00000-0  00000+0 0  9999
2 22178  64.5973 351.1702 6869140 282.0746  13.8624  2.20431971199707
MOLNIYA 1-86            
1 22671U 93035A   19139.06599946  .00000079  00000-0  71124-4 0  9994
2 22671  63.0934 167.2344 4855507 351.2259   2.7248  5.62586209288939
MOLNIYA 1-87            
1 22949U 93079A   19138.20779129 -.00001081  00000-0  22192-1 0  9991
2 22949  63.3070 217.8750 7009684 290.5310  10.9950  2.02878524186446
MOLNIYA 1-88            
1 23420U 94081A   19137.41960955  .00000044  00000-0  30083-3 0  9998
2 23420  63.7057 102.3692 6042670 297.9601  14.2699  3.34494780209243
MOLNIYA 3-47            
1 23642U 95042A   19137.29543992  .00000973  00000-0  22366-1 0  9990
2 23642  63.1466 200.5634 6953979 289.6281  11.5199  2.01972916174341
MOLNIYA 1-90            
1 24960U 97054A   19136.34027406  .00000019  00000-0 -26899-4 0  9991
2 24960  62.9548  81.8143 6417759 298.9155  12.0034  3.18687936172056
MOLNIYA 1-91            
1 25485U 98054A   19138.74472324  .00012796  77537-6  48430-3 0  9997
2 25485  62.5455 351.2286 7256500 283.9857  10.8549  2.35194822151760
MOLNIYA 3-50            
1 25847U 99036A   19139.07102536  .00000110  00000-0 -65955-2 0  9995
2 25847  62.1334 150.0093 7215362 271.8575  14.6073  2.00666015145531
